#dP2023  1 12  0  0  0.00000000      96 __u+U ITR00 FIT  IAC
## 2244 345600.00000000   900.00000000 59956 0.0000000000000
+  118   C06C07C08C09C10C11C12C13C14C16C19C20C21C22C23C24C25
+        C26C27C28C29C30C32C33C34C35C36C37C38C39C40C41C42C43
+        C44C45C46E01E02E03E04E05E07E08E09E10E11E12E13E14E15
+        E18E19E21E24E25E26E27E30E31E33E34E36G01G02G03G04G05
+        G06G07G08G09G10G11G12G13G14G15G16G17G18G19G20G21G23
+        G24G25G26G27G29G30G31G32J02J03J04R01R02R03R04R05R07
+        R08R09R11R12R13R14R15R16R17R18R19R20R21R22R24R25  0
++         9  9  8  9  8  7  6  6  7  9  8  8  7  7  8  0  8
++         7  7  8  7  8  7  7  6  7  7  7  8  9  8  8  7  7
++         7  6  7  7  7  6  6  7  6  7  7  7  7  7  7  7  7
++         7  7  6  6  6  6  6  7  6  7  7  7  6  7  6  6  6
++         5  6  6  6  6  6  6  6  6  6  6  7  7  7  6  7  6
++         6  7  6  6  8  6  6  6  9  9  8  7  7  6  6  7  7
++         7  7  6  7  6  7  7  6  7  8  7  6  6  7  7  6  0
%c M  cc GPS ccc cccc cccc cccc cccc ccccc ccccc ccccc ccccc
%c cc cc ccc ccc cccc cccc cccc cccc ccccc ccccc ccccc ccccc
%f  0.0000000  0.000000000  0.00000000000  0.000000000000000
%f  0.0000000  0.000000000  0.00000000000  0.000000000000000
%i    0    0    0    0      0      0      0      0         0
%i    0    0    0    0      0      0      0      0         0
/* INFORMATION & ANALYSIS CENTER (IAC)      ULTRA-RAPID DATA
/* S/V CLOCKS ARE ALIGNED TO GNSS TIME                      
/* G:C1WC2W R:C1PC2P E:C1XC5X C:C2IC6I J:C1CC2S             
/* PCV:IGS20_2239 OL/AL:FES2004  NONE     YN ORB:CoN CLK:CoN
*  2023 01 12  1 15  0.00000000
PC06  -1135.756133  29433.558126  30259.180133   -184.378148
PC07 -15397.103408  29828.025440 -25539.048278     28.876764
PC08  -9738.972156  40906.136368  -1462.384045    527.443042
PC09   5833.739217  33295.777670  25905.569027    224.880145
PC10  -9668.919698  29798.999339 -28112.401251     34.012041
PC11 -15787.716330 -20474.310818  10601.921186   -183.102468
PC12   1183.379009 -17142.813256  22033.320805    392.876928
PC13  -5697.124618  41490.893327   3479.191822    181.110842
PC14  -8416.765403 -13434.835050 -22950.528582    358.987583
PC16  -3033.764792  27875.395357  31765.342628     83.797836
PC19  17523.182600   7200.940652  20509.076304   -897.513264
PC20   -295.756841  16894.109985  22225.211705    770.840867
PC21  19320.439736 -17083.367008 -10624.996671   -917.573810
PC22  26099.587236  -7098.508603   6826.804613   -690.549482
PC23 -16439.492165   3025.601066  22339.842523   -871.330781
PC24    375.207255 -27774.940622   2833.228369 999999.999999
PC25 -12478.286943 -16470.857521  18753.030285     54.064947
PC26  10505.070759 -22611.516329 -12591.524944    -63.028764
PC27 -10023.902063  12391.809207 -22922.218172     80.208114
PC28 -22546.572625  -2213.857499 -16287.604378     57.870246
PC29  22903.024865  15914.970786  -1033.051304     66.216303
PC30   8578.323480  20115.391879 -17353.151023      1.277723
PC32 -19241.532161  17237.133123  10576.374581   -653.044979
PC33 -17514.185828  -7161.140442 -20510.934751   -881.886036
PC34  -9695.041110 -20266.169983  16530.952589     81.654874
PC35  23236.645248   2561.344012  15265.149306    287.268673
PC36  11785.471732  17344.433576 -18391.056519   -701.178739
PC37 -11699.162932  21309.550207  13681.861766   -850.578876
PC38 -13622.895716  38681.279268  -9381.685655     51.333417
PC39  -7895.212825  24074.744641  33754.252623     -1.382693
PC40 -22624.826988  24130.945375 -26272.762399    -12.316942
PC41 -26039.580573   6807.658709  -7318.845882   -483.560582
PC42   1616.574052 -17298.466449 -21791.523684   -901.367763
PC43 -22509.464874 -16374.184223   1788.533141 999999.999999
PC44   9877.903473 -12689.095923  22799.515006    174.404111
PC45  16325.281534  -3531.651947 -22366.342244    -46.394905
PC46    871.736925  27481.757028  -4634.556840    -25.816007
PE01  20825.794850 -19615.969121  -7626.693385   -593.555100
PE02 -20700.401930  19843.577213   7283.159532     14.156219
PE03 -22048.958917   9844.011147  17119.124784   -639.023322
PE04   2155.747272 -16886.872323 -24212.745092    -34.206439
PE05 -29428.890704  -3158.107964   -215.132189   -106.070780
PE07  19478.676513  14153.893334  17215.307930    -14.461010
PE08  -2218.346196  16736.427895  24310.004164    -17.963493
PE09 -19352.880059 -14085.283307 -17420.876204   -796.841275
PE10  -9669.307672 -27666.495736   4167.891005   -504.429584
PE11 -15576.715729 -24315.975755  -6469.225039    419.965874
PE12  -2628.963105 -26421.950459  13069.154567   -380.851030
PE13  15210.723204  24772.985883   5607.081911    429.978479
PE14 -30441.586636  -5133.650737  -2251.665434    110.855594
PE15   2496.482185  26297.002144 -13350.858521    694.765855
PE18  22329.265436  10904.950429  -6208.842345   -519.929711
PE19  24020.018885  -8137.962507 -15268.681940  -3509.881986
PE21  20466.941637  -3600.737216 -21087.421117   -505.726312
PE24  -7699.293044 -16564.576601  23281.364424  -1052.981189
PE25 -20348.528980   3255.178190  21244.928351   -596.985105
PE26  18887.124590   7840.193949  21410.708810  -1854.104928
PE27   8488.268622  15756.838069 -23573.936246   -485.507837
PE30  -8998.509450  25712.716181 -11563.142892  -1152.962244
PE31   8384.313214 -25663.434079  12153.339791   -513.079910
PE33  11621.004455 -12271.489842  24310.183569   -454.389009
PE34 -11493.030625  12461.428218 -24262.010677    -24.368338
PE36 -18862.262976  -8758.141720 -21050.688566   -489.085371
PG01  15466.060904   1833.079705  21261.544729    225.577223
PG02 -14726.947687   3078.699735 -21239.651670   -627.850648
PG03  20090.800567  -8185.006307  15127.305893   -372.678252
PG04  25433.071259   -311.139792  -7839.793067    -50.543419
PG05 -14274.752000  -6124.663759 -21724.659392   -111.638011
PG06  -4960.296991 -25364.216619   5986.904996    556.979142
PG07   9951.113075 -13920.281282 -19755.555345    260.268913
PG08  25674.970672   6510.995191  -3922.295213   -103.126617
PG09  18643.030151  -9125.080232 -16676.839767   -238.025527
PG10  -8937.388989  22390.794847  10949.311018    -20.038485
PG11 -12141.204537 -22568.196451  -7038.638153    -76.684849
PG12 -20408.969902   5654.575689  15688.920269   -327.008676
PG13 -21049.110721 -13467.284651  -9454.293026    457.828815
PG14  11625.196958 -22232.215180   8535.620776    -51.170910
PG15 -26161.192954  -3941.807844  -4114.376931      3.839581
PG16  11241.585850  10285.532050 -22054.118281   -524.104762
PG17   5741.179617 -14081.612796  22220.459289    692.716170
PG18  -7801.353893  16834.252804 -18946.309230    -95.450974
PG19  -7115.687737 -15985.279583  19832.101928    262.896994
PG20  -6304.964621 -16985.951807 -19463.369906    457.640297
PG21  18228.141489   9986.225644  17571.864407    153.376705
PG23 -16449.789063  20751.922403   -209.301641      2.219872
PG24 -17847.699462  -5441.017442  18704.162088    -25.949959
PG25 -19947.117193  14859.382221   8591.896617    410.487987
PG26   1713.203830  19735.233571 -17637.701886    240.149423
PG27  19133.826720  12824.726639 -13807.109194    129.326263
PG29 -21144.810262   5299.446266 -15271.675399   -579.857230
PG30   1354.824232 -23304.575530 -12334.210861   -533.485550
PG31   5852.611535  25342.115347   3813.644314   -206.061501
PG32  -1508.177078  15269.645805  21843.363415   -361.017250
PJ02 -34482.532483  24026.177492   8867.147262     -0.548428
PJ03 -20908.390997  20950.374474 -25381.531695     -0.077260
PJ04 -26640.872821  32696.249146   9805.358324    118.391122
PR01 -17918.735671  11961.173345  13664.007840     21.097973
PR02    452.165413  11024.604518  23036.234012    -23.324256
PR03  17748.813539   4118.578482  17925.314292     70.705354
PR04  24867.747897  -4847.772932   3064.027214    171.986728
PR05  18561.556230 -11144.352087 -13502.322534    106.029559
PR07 -18271.613477  -3714.612809 -17341.599668     47.825388
PR08 -24816.757098   5094.805630  -2758.241922    -68.974021
PR09   1238.658093 -23758.927620   9113.691643     98.060983
PR11 -12115.459768   5705.924676  21717.851190      7.221297
PR12 -10121.686153  21748.574962   8660.824032     24.252214
PR13  -2457.995979  24240.511443  -7560.881193    -30.864177
PR14   7524.773728  11945.827601 -21242.212833     24.210304
PR15  12391.237644  -6707.529147 -21250.690090     91.756209
PR16   9977.592570 -21669.679006  -8990.467482      9.846205
PR17  18709.413697  16993.331987   3315.684903    594.965304
PR18  17094.549906   6171.558109  17945.444039     61.338673
PR19   7866.507867  -6739.195715  23316.303141   -217.919285
PR20  -8610.086524 -19121.255147  14505.705332    -85.687797
PR21 -18919.360760 -16391.533383  -4961.581519   -364.735786
PR22 -16757.708219  -5873.866085 -18274.391806     66.221776
PR24   9513.656420  19211.504955 -13791.110710    139.005940
PR25 -17816.970229 -18037.626671  -2885.178387     51.355292
EOF
